SCS-01 D                
1 63985U 25100D   26068.75607686  .00032471  00000+0  10528-2 0  9990
2 63985  97.3730 145.4097 0006346 266.2302  93.8214 15.31902149 45621
STARLINK-35636          
1 66160U 25240Q   26068.28988450  .00028418  00000+0  96814-3 0  9991
2 66160  53.1594  64.9254 0001259  85.3550 274.7594 15.30193151 21922
